kmfv:
  raw_text: KMFV 120315Z AUTO 19004KT 10SM SCT090 SCT110 21/21 A2996 RMK AO2 T02120205
  station_id: KMFV
  observation_time: 2022-09-12T03:15:00Z